{"type": "FeatureCollection", "features": [ {"type": "Feature", "properties": {"norad_id": 30160, "name": "FENGYUN 1C DEB", "group": "fengyun-1c-debris", "lat": -62.00562603916983, "lon": -44.741312682307765, "alt_km": 1361.698765844495, "timestamp": "2025-12-15T22:44:29.202248+00:00", "meta": {"OBJECT_NAME": "FENGYUN 1C DEB", "OBJECT_ID": "1999-025TR", "EPOCH": "2025-12-15T07:43:23.746368", "MEAN_MOTION": 13.4289324, "ECCENTRICITY": 0.03429176, "INCLINATION": 98.8863, "RA_OF_ASC_NODE": 297.5905, "ARG_OF_PERICENTER": 121.2964, "MEAN_ANOMALY": 31.6042, "EPHEMERIS_TYPE": 0, "CLASSIFICATION_TYPE": "U", "NORAD_CAT_ID": 30160, "ELEMENT_SET_NO": 999, "REV_AT_EPOCH": 92448, "BSTAR": 0.00089594257, "MEAN_MOTION_DOT": 6.89e-06, "MEAN_MOTION_DDOT": 0}, "tle": {"line1": "1 30160U 99025TR  25349.32180262  .00000689  00000+0  89594-3 0  9992", "line2": "2 30160  98.8863 297.5905 0342917 121.2964  31.6042 13.42893240924481"}}, "geometry": {"type": "Point", "coordinates": [-44.741312682307765, -62.00562603916983]}}, {"type": "Feature", "properties": {"norad_id": 30161, "name": "FENGYUN 1C DEB", "group": "fengyun-1c-debris", "lat": -64.3817550656387, "lon": 0.2873629737245691, "alt_km": 898.99761728677, "timestamp": "2025-12-15T22:44:29.202258+00:00", "meta": {"OBJECT_NAME": "FENGYUN 1C DEB", "OBJECT_ID": "1999-025TS", "EPOCH": "2025-12-14T22:26:55.974912", "MEAN_MOTION": 13.49728316, "ECCENTRICITY": 0.03281147, "INCLINATION": 100.5056, "RA_OF_ASC_NODE": 336.4542, "ARG_OF_PERICENTER": 252.5872, "MEAN_ANOMALY": 162.6061, "EPHEMERIS_TYPE": 0, "CLASSIFICATION_TYPE": "U", "NORAD_CAT_ID": 30161, "ELEMENT_SET_NO": 999, "REV_AT_EPOCH": 92589, "BSTAR": 0.0017396004, "MEAN_MOTION_DOT": 1.487e-05, "MEAN_MOTION_DDOT": 0}, "tle": {"line1": "1 30161U 99025TS  25348.93537008  .00001487  00000+0  17396-2 0  9990", "line2": "2 30161 100.5056 336.4542 0328114 252.5872 162.6061 13.49728316925896"}}, "geometry": {"type": "Point", "coordinates": [0.2873629737245691, -64.3817550656387]}}, {"type": "Feature", "properties": {"norad_id": 30162, "name": "FENGYUN 1C DEB", "group": "fengyun-1c-debris", "lat": 44.10661796105325, "lon": -124.78177923613048, "alt_km": 1263.3813755705187, "timestamp": "2025-12-15T22:44:29.202269+00:00", "meta": {"OBJECT_NAME": "FENGYUN 1C DEB", "OBJECT_ID": "1999-025TT", "EPOCH": "2025-12-15T02:42:04.784832", "MEAN_MOTION": 13.53408718, "ECCENTRICITY": 0.03137092, "INCLINATION": 99.4889, "RA_OF_ASC_NODE": 45.0876, "ARG_OF_PERICENTER": 343.5714, "MEAN_ANOMALY": 43.5652, "EPHEMERIS_TYPE": 0, "CLASSIFICATION_TYPE": "U", "NORAD_CAT_ID": 30162, "ELEMENT_SET_NO": 999, "REV_AT_EPOCH": 92693, "BSTAR": 0.0023506053, "MEAN_MOTION_DOT": 2.112e-05, "MEAN_MOTION_DDOT": 0}, "tle": {"line1": "1 30162U 99025TT  25349.11255538  .00002112  00000+0  23506-2 0  9993", "line2": "2 30162  99.4889  45.0876 0313709 343.5714  43.5652 13.53408718926935"}}, "geometry": {"type": "Point", "coordinates": [-124.78177923613048, 44.10661796105325]}}, {"type": "Feature", "properties": {"norad_id": 30163, "name": "FENGYUN 1C DEB", "group": "fengyun-1c-debris", "lat": -19.16977800126229, "lon": 107.63924384500825, "alt_km": 1234.1946845994908, "timestamp": "2025-12-15T22:44:29.202280+00:00", "meta": {"OBJECT_NAME": "FENGYUN 1C DEB", "OBJECT_ID": "1999-025TU", "EPOCH": "2025-12-15T07:00:01.303200", "MEAN_MOTION": 13.38790293, "ECCENTRICITY": 0.03736745, "INCLINATION": 98.7004, "RA_OF_ASC_NODE": 104.0243, "ARG_OF_PERICENTER": 226.0673, "MEAN_ANOMALY": 191.3014, "EPHEMERIS_TYPE": 0, "CLASSIFICATION_TYPE": "U", "NORAD_CAT_ID": 30163, "ELEMENT_SET_NO": 999, "REV_AT_EPOCH": 91979, "BSTAR": 0.0019288558, "MEAN_MOTION_DOT": 1.509e-05, "MEAN_MOTION_DDOT": 0}, "tle": {"line1": "1 30163U 99025TU  25349.29168175  .00001509  00000+0  19289-2 0  9995", "line2": "2 30163  98.7004 104.0243 0373674 226.0673 191.3014 13.38790293919792"}}, "geometry": {"type": "Point", "coordinates": [107.63924384500825, -19.16977800126229]}}, {"type": "Feature", "properties": {"norad_id": 30167, "name": "FENGYUN 1C DEB", "group": "fengyun-1c-debris", "lat": 68.36837963916065, "lon": -81.21700079050945, "alt_km": 639.3746843037397, "timestamp": "2025-12-15T22:44:29.202290+00:00", "meta": {"OBJECT_NAME": "FENGYUN 1C DEB", "OBJECT_ID": "1999-025TY", "EPOCH": "2025-12-15T05:46:00.480576", "MEAN_MOTION": 14.48552193, "ECCENTRICITY": 0.01442269, "INCLINATION": 98.968, "RA_OF_ASC_NODE": 74.5661, "ARG_OF_PERICENTER": 147.0066, "MEAN_ANOMALY": 237.4806, "EPHEMERIS_TYPE": 0, "CLASSIFICATION_TYPE": "U", "NORAD_CAT_ID": 30167, "ELEMENT_SET_NO": 999, "REV_AT_EPOCH": 99395, "BSTAR": 0.00043067452, "MEAN_MOTION_DOT": 1.79e-05, "MEAN_MOTION_DDOT": 0}, "tle": {"line1": "1 30167U 99025TY  25349.24028334  .00001790  00000+0  43067-3 0  9990", "line2": "2 30167  98.9680  74.5661 0144226 147.0066 237.4806 14.48552193993958"}}, "geometry": {"type": "Point", "coordinates": [-81.21700079050945, 68.36837963916065]}}, {"type": "Feature", "properties": {"norad_id": 30168, "name": "FENGYUN 1C DEB", "group": "fengyun-1c-debris", "lat": -51.01563581579956, "lon": -127.28854819731363, "alt_km": 719.2737269045138, "timestamp": "2025-12-15T22:44:29.202301+00:00", "meta": {"OBJECT_NAME": "FENGYUN 1C DEB", "OBJECT_ID": "1999-025TZ", "EPOCH": "2025-12-15T03:30:21.428640", "MEAN_MOTION": 14.52916031, "ECCENTRICITY": 0.01005078, "INCLINATION": 97.3906, "RA_OF_ASC_NODE": 61.2332, "ARG_OF_PERICENTER": 146.5207, "MEAN_ANOMALY": 214.2399, "EPHEMERIS_TYPE": 0, "CLASSIFICATION_TYPE": "U", "NORAD_CAT_ID": 30168, "ELEMENT_SET_NO": 999, "REV_AT_EPOCH": 98346, "BSTAR": 0.0011860586, "MEAN_MOTION_DOT": 5.184e-05, "MEAN_MOTION_DDOT": 0}, "tle": {"line1": "1 30168U 99025TZ  25349.14608135  .00005184  00000+0  11861-2 0  9990", "line2": "2 30168  97.3906  61.2332 0100507 146.5207 214.2399 14.52916031983461"}}, "geometry": {"type": "Point", "coordinates": [-127.28854819731363, -51.01563581579956]}}, {"type": "Feature", "properties": {"norad_id": 30169, "name": "FENGYUN 1C DEB", "group": "fengyun-1c-debris", "lat": 70.19460139903308, "lon": -96.54886470954085, "alt_km": 738.7920377737673, "timestamp": "2025-12-15T22:44:29.202312+00:00", "meta": {"OBJECT_NAME": "FENGYUN 1C DEB", "OBJECT_ID": "1999-025UA", "EPOCH": "2025-12-15T04:14:33.532800", "MEAN_MOTION": 14.58170277, "ECCENTRICITY": 0.0213117, "INCLINATION": 98.3367, "RA_OF_ASC_NODE": 58.6504, "ARG_OF_PERICENTER": 219.5216, "MEAN_ANOMALY": 166.9984, "EPHEMERIS_TYPE": 0, "CLASSIFICATION_TYPE": "U", "NORAD_CAT_ID": 30169, "ELEMENT_SET_NO": 999, "REV_AT_EPOCH": 97759, "BSTAR": 0.001662371, "MEAN_MOTION_DOT": 0.00010455, "MEAN_MOTION_DDOT": 0}, "tle": {"line1": "1 30169U 99025UA  25349.17677700  .00010455  00000+0  16624-2 0  9997", "line2": "2 30169  98.3367  58.6504 0213117 219.5216 166.9984 14.58170277977598"}}, "geometry": {"type": "Point", "coordinates": [-96.54886470954085, 70.19460139903308]}}, {"type": "Feature", "properties": {"norad_id": 30170, "name": "FENGYUN 1C DEB", "group": "fengyun-1c-debris", "lat": 8.988860160784197, "lon": 158.28950779336745, "alt_km": 898.7374353488703, "timestamp": "2025-12-15T22:44:29.202322+00:00", "meta": {"OBJECT_NAME": "FENGYUN 1C DEB", "OBJECT_ID": "1999-025UB", "EPOCH": "2025-12-14T22:13:28.327584", "MEAN_MOTION": 14.00310858, "ECCENTRICITY": 0.00769166, "INCLINATION": 98.8489, "RA_OF_ASC_NODE": 335.8889, "ARG_OF_PERICENTER": 268.5575, "MEAN_ANOMALY": 156.2495, "EPHEMERIS_TYPE": 0, "CLASSIFICATION_TYPE": "U", "NORAD_CAT_ID": 30170, "ELEMENT_SET_NO": 999, "REV_AT_EPOCH": 96446, "BSTAR": 0.00047463934, "MEAN_MOTION_DOT": 6.77e-06, "MEAN_MOTION_DDOT": 0}, "tle": {"line1": "1 30170U 99025UB  25348.92602231  .00000677  00000+0  47464-3 0  9990", "line2": "2 30170  98.8489 335.8889 0076916 268.5575 156.2495 14.00310858964461"}}, "geometry": {"type": "Point", "coordinates": [158.28950779336745, 8.988860160784197]}}, {"type": "Feature", "properties": {"norad_id": 30171, "name": "FENGYUN 1C DEB", "group": "fengyun-1c-debris", "lat": -4.138117713134978, "lon": -152.01132928533264, "alt_km": 923.3226590112918, "timestamp": "2025-12-15T22:44:29.202333+00:00", "meta": {"OBJECT_NAME": "FENGYUN 1C DEB", "OBJECT_ID": "1999-025UC", "EPOCH": "2025-12-15T03:51:05.075424", "MEAN_MOTION": 13.96859853, "ECCENTRICITY": 0.01843767, "INCLINATION": 98.3979, "RA_OF_ASC_NODE": 206.6569, "ARG_OF_PERICENTER": 260.5807, "MEAN_ANOMALY": 97.4473, "EPHEMERIS_TYPE": 0, "CLASSIFICATION_TYPE": "U", "NORAD_CAT_ID": 30171, "ELEMENT_SET_NO": 999, "REV_AT_EPOCH": 96304, "BSTAR": 0.0002600592, "MEAN_MOTION_DOT": 3.77e-06, "MEAN_MOTION_DDOT": 0}, "tle": {"line1": "1 30171U 99025UC  25349.16047541  .00000377  00000+0  26006-3 0  9991", "line2": "2 30171  98.3979 206.6569 0184376 260.5807  97.4473 13.96859853963043"}}, "geometry": {"type": "Point", "coordinates": [-152.01132928533264, -4.138117713134978]}}, {"type": "Feature", "properties": {"norad_id": 30172, "name": "FENGYUN 1C DEB", "group": "fengyun-1c-debris", "lat": -3.809682387444564, "lon": 148.4957342160172, "alt_km": 805.2804594413028, "timestamp": "2025-12-15T22:44:29.202344+00:00", "meta": {"OBJECT_NAME": "FENGYUN 1C DEB", "OBJECT_ID": "1999-025UD", "EPOCH": "2025-12-14T22:11:59.542944", "MEAN_MOTION": 14.12476872, "ECCENTRICITY": 0.00686336, "INCLINATION": 99.2343, "RA_OF_ASC_NODE": 328.0631, "ARG_OF_PERICENTER": 195.8656, "MEAN_ANOMALY": 191.1975, "EPHEMERIS_TYPE": 0, "CLASSIFICATION_TYPE": "U", "NORAD_CAT_ID": 30172, "ELEMENT_SET_NO": 999, "REV_AT_EPOCH": 96548, "BSTAR": 0.0010438007, "MEAN_MOTION_DOT": 1.924e-05, "MEAN_MOTION_DDOT": 0}, "tle": {"line1": "1 30172U 99025UD  25348.92499471  .00001924  00000+0  10438-2 0  9998", "line2": "2 30172  99.2343 328.0631 0068633 195.8656 191.1975 14.12476872965481"}}, "geometry": {"type": "Point", "coordinates": [148.4957342160172, -3.809682387444564]}}]}